ONEWEB-0387             
1 49313U 21090AL  24252.93394535  .00000088  00000+0  18392-3 0  9999
2 49313  87.9226  43.0494 0001858  83.4944 276.6401 13.20774058144512
ONEWEB-0388             
1 49314U 21090AM  24252.91804502  .00000057  00000+0  10985-3 0  9994
2 49314  87.9098  73.5304 0001603  87.6216 272.5100 13.19722662141176
ONEWEB-0389             
1 50469U 21132A   24252.67886063  .00000088  00000+0  19292-3 0  9993
2 50469  87.9154 134.6453 0002052  68.5449 291.5901 13.17649460132948
ONEWEB-0390             
1 50470U 21132B   24252.75641058  .00000165  00000+0  39235-3 0  9992
2 50470  87.9155 134.6374 0002122  79.5647 280.5724 13.17650101132959
ONEWEB-0391             
1 50471U 21132C   24252.68207591 -.00000007  00000+0 -50410-4 0  9991
2 50471  87.9163 134.6417 0001960  65.5389 294.5947 13.17646067132941
ONEWEB-0392             
1 50472U 21132D   24252.71116714  .00000031  00000+0  45685-4 0  9995
2 50472  87.9147 134.6241 0002121  64.1600 295.9750 13.17650299132983
ONEWEB-0393             
1 50473U 21132E   24252.76139002  .00000078  00000+0  16728-3 0  9992
2 50473  87.9158 134.5994 0001977  72.0284 288.1063 13.17648271132982
ONEWEB-0394             
1 50474U 21132F   24252.63008189  .00000077  00000+0  16328-3 0  9995
2 50474  87.9071 104.1598 0001682  77.0311 283.1009 13.18684648136381
